[{"OBJECT_NAME":"STARLINK-3392","OBJECT_ID":"2022-005V","EPOCH":"2026-03-09T21:59:18.998304","MEAN_MOTION":15.08818054,"ECCENTRICITY":0.00014155,"INCLINATION":53.2184,"RA_OF_ASC_NODE":288.1069,"ARG_OF_PERICENTER":93.2883,"MEAN_ANOMALY":266.8271,"EPHEMERIS_TYPE":0,"CLASSIFICATION_TYPE":"U","NORAD_CAT_ID":51123,"ELEMENT_SET_NO":999,"REV_AT_EPOCH":22891,"BSTAR":-8.0149942e-5,"MEAN_MOTION_DOT":-1.562e-5,"MEAN_MOTION_DDOT":0},{"OBJECT_NAME":"CZ-6A DEB","OBJECT_ID":"2024-140GC","EPOCH":"2026-03-09T13:34:49.028736","MEAN_MOTION":14.75009559,"ECCENTRICITY":0.0165561,"INCLINATION":88.9161,"RA_OF_ASC_NODE":274.3109,"ARG_OF_PERICENTER":173.9196,"MEAN_ANOMALY":186.409,"EPHEMERIS_TYPE":0,"CLASSIFICATION_TYPE":"U","NORAD_CAT_ID":60801,"ELEMENT_SET_NO":999,"REV_AT_EPOCH":8449,"BSTAR":0.00072752,"MEAN_MOTION_DOT":6.141e-5,"MEAN_MOTION_DDOT":0}]
